CCSDS_OMM_VERS = 2.0
CREATION_DATE  = 
ORIGINATOR     = 

OBJECT_NAME    = SL-14 R/B
OBJECT_ID      = 1991-042B
CENTER_NAME    = EARTH
REF_FRAME      = TEME
TIME_SYSTEM    = UTC
MEAN_ELEMENT_THEORY = SGP/SGP4

EPOCH          = 2026-02-23T05:45:03.069504
MEAN_MOTION    = 14.81813312
ECCENTRICITY   = .00156109
INCLINATION    = 82.4898
RA_OF_ASC_NODE = 233.7346
ARG_OF_PERICENTER = 290.4932
MEAN_ANOMALY   = 69.4606

EPHEMERIS_TYPE = 0
CLASSIFICATION_TYPE = U
NORAD_CAT_ID   = 21423
ELEMENT_SET_NO = 999
REV_AT_EPOCH   = 85093
BSTAR          = .54731499E-4
MEAN_MOTION_DOT = .456E-5
MEAN_MOTION_DDOT = 0

CCSDS_OMM_VERS = 2.0
CREATION_DATE  = 
ORIGINATOR     = 

OBJECT_NAME    = ERS-1
OBJECT_ID      = 1991-050A
CENTER_NAME    = EARTH
REF_FRAME      = TEME
TIME_SYSTEM    = UTC
MEAN_ELEMENT_THEORY = SGP/SGP4

EPOCH          = 2026-02-23T00:43:50.727936
MEAN_MOTION    = 14.39436521
ECCENTRICITY   = .00309695
INCLINATION    = 98.7891
RA_OF_ASC_NODE = 71.8964
ARG_OF_PERICENTER = 244.9478
MEAN_ANOMALY   = 114.8493

EPHEMERIS_TYPE = 0
CLASSIFICATION_TYPE = U
NORAD_CAT_ID   = 21574
ELEMENT_SET_NO = 999
REV_AT_EPOCH   = 81362
BSTAR          = .11201931E-3
MEAN_MOTION_DOT = .304E-5
MEAN_MOTION_DDOT = 0

CCSDS_OMM_VERS = 2.0
CREATION_DATE  = 
ORIGINATOR     = 

OBJECT_NAME    = ARIANE 40 R/B
OBJECT_ID      = 1991-050F
CENTER_NAME    = EARTH
REF_FRAME      = TEME
TIME_SYSTEM    = UTC
MEAN_ELEMENT_THEORY = SGP/SGP4

EPOCH          = 2026-02-23T02:47:25.461024
MEAN_MOTION    = 14.42881835
ECCENTRICITY   = .00043126
INCLINATION    = 98.2046
RA_OF_ASC_NODE = 106.8976
ARG_OF_PERICENTER = 112.8072
MEAN_ANOMALY   = 247.3575

EPHEMERIS_TYPE = 0
CLASSIFICATION_TYPE = U
NORAD_CAT_ID   = 21610
ELEMENT_SET_NO = 999
REV_AT_EPOCH   = 81689
BSTAR          = .93787051E-4
MEAN_MOTION_DOT = .272E-5
MEAN_MOTION_DDOT = 0

CCSDS_OMM_VERS = 2.0
CREATION_DATE  = 
ORIGINATOR     = 

OBJECT_NAME    = INTERCOSMOS 25
OBJECT_ID      = 1991-086A
CENTER_NAME    = EARTH
REF_FRAME      = TEME
TIME_SYSTEM    = UTC
MEAN_ELEMENT_THEORY = SGP/SGP4

EPOCH          = 2026-02-23T03:03:29.954592
MEAN_MOTION    = 12.11954029
ECCENTRICITY   = .14870789
INCLINATION    = 82.6075
RA_OF_ASC_NODE = 318.8084
ARG_OF_PERICENTER = 148.3017
MEAN_ANOMALY   = 221.7024

EPHEMERIS_TYPE = 0
CLASSIFICATION_TYPE = U
NORAD_CAT_ID   = 21819
ELEMENT_SET_NO = 999
REV_AT_EPOCH   = 49492
BSTAR          = .22883192E-3
MEAN_MOTION_DOT = .1197E-4
MEAN_MOTION_DDOT = 0

CCSDS_OMM_VERS = 2.0
CREATION_DATE  = 
ORIGINATOR     = 

OBJECT_NAME    = SL-8 R/B
OBJECT_ID      = 1992-008B
CENTER_NAME    = EARTH
REF_FRAME      = TEME
TIME_SYSTEM    = UTC
MEAN_ELEMENT_THEORY = SGP/SGP4

EPOCH          = 2026-02-23T02:47:40.373664
MEAN_MOTION    = 13.75969916
ECCENTRICITY   = .00347456
INCLINATION    = 82.9238
RA_OF_ASC_NODE = 278.6211
ARG_OF_PERICENTER = 173.3875
MEAN_ANOMALY   = 300.9681

EPHEMERIS_TYPE = 0
CLASSIFICATION_TYPE = U
NORAD_CAT_ID   = 21876
ELEMENT_SET_NO = 999
REV_AT_EPOCH   = 70741
BSTAR          = -.5579784E-5
MEAN_MOTION_DOT = .1E-6
MEAN_MOTION_DDOT = 0

CCSDS_OMM_VERS = 2.0
CREATION_DATE  = 
ORIGINATOR     = 

OBJECT_NAME    = SL-8 R/B
OBJECT_ID      = 1992-020B
CENTER_NAME    = EARTH
REF_FRAME      = TEME
TIME_SYSTEM    = UTC
MEAN_ELEMENT_THEORY = SGP/SGP4

EPOCH          = 2026-02-23T06:45:00.427680
MEAN_MOTION    = 13.75547624
ECCENTRICITY   = .00283223
INCLINATION    = 82.9344
RA_OF_ASC_NODE = 164.4558
ARG_OF_PERICENTER = 340.4352
MEAN_ANOMALY   = 38.1743

EPHEMERIS_TYPE = 0
CLASSIFICATION_TYPE = U
NORAD_CAT_ID   = 21938
ELEMENT_SET_NO = 999
REV_AT_EPOCH   = 69915
BSTAR          = .84761435E-4
MEAN_MOTION_DOT = .97E-6
MEAN_MOTION_DDOT = 0

CCSDS_OMM_VERS = 2.0
CREATION_DATE  = 
ORIGINATOR     = 

OBJECT_NAME    = USA 81
OBJECT_ID      = 1992-023A
CENTER_NAME    = EARTH
REF_FRAME      = TEME
TIME_SYSTEM    = UTC
MEAN_ELEMENT_THEORY = SGP/SGP4

EPOCH          = 2026-02-23T04:45:26.983872
MEAN_MOTION    = 14.32362590
ECCENTRICITY   = .00027311
INCLINATION    = 85.0111
RA_OF_ASC_NODE = 139.7986
ARG_OF_PERICENTER = 90.1149
MEAN_ANOMALY   = 270.0357

EPHEMERIS_TYPE = 0
CLASSIFICATION_TYPE = U
NORAD_CAT_ID   = 21949
ELEMENT_SET_NO = 999
REV_AT_EPOCH   = 9271
BSTAR          = .64175352E-4
MEAN_MOTION_DOT = .193E-5
MEAN_MOTION_DDOT = 0

CCSDS_OMM_VERS = 2.0
CREATION_DATE  = 
ORIGINATOR     = 

OBJECT_NAME    = COSMOS 2219
OBJECT_ID      = 1992-076A
CENTER_NAME    = EARTH
REF_FRAME      = TEME
TIME_SYSTEM    = UTC
MEAN_ELEMENT_THEORY = SGP/SGP4

EPOCH          = 2026-02-23T05:33:54.075168
MEAN_MOTION    = 14.14082488
ECCENTRICITY   = .00196735
INCLINATION    = 71.0594
RA_OF_ASC_NODE = 48.2913
ARG_OF_PERICENTER = 226.3641
MEAN_ANOMALY   = 133.5850

EPHEMERIS_TYPE = 0
CLASSIFICATION_TYPE = U
NORAD_CAT_ID   = 22219
ELEMENT_SET_NO = 999
REV_AT_EPOCH   = 71633
BSTAR          = .20572674E-3
MEAN_MOTION_DOT = .345E-5
MEAN_MOTION_DDOT = 0

CCSDS_OMM_VERS = 2.0
CREATION_DATE  = 
ORIGINATOR     = 

OBJECT_NAME    = SL-16 R/B
OBJECT_ID      = 1992-076B
CENTER_NAME    = EARTH
REF_FRAME      = TEME
TIME_SYSTEM    = UTC
MEAN_ELEMENT_THEORY = SGP/SGP4

EPOCH          = 2026-02-23T05:53:47.889888
MEAN_MOTION    = 14.16855596
ECCENTRICITY   = .00109604
INCLINATION    = 70.9981
RA_OF_ASC_NODE = 218.7982
ARG_OF_PERICENTER = 122.8550
MEAN_ANOMALY   = 50.8118

EPHEMERIS_TYPE = 0
CLASSIFICATION_TYPE = U
NORAD_CAT_ID   = 22220
ELEMENT_SET_NO = 999
REV_AT_EPOCH   = 71978
BSTAR          = .1279384E-3
MEAN_MOTION_DOT = .209E-5
MEAN_MOTION_DDOT = 0

CCSDS_OMM_VERS = 2.0
CREATION_DATE  = 
ORIGINATOR     = 

OBJECT_NAME    = COSMOS 2221
OBJECT_ID      = 1992-080A
CENTER_NAME    = EARTH
REF_FRAME      = TEME
TIME_SYSTEM    = UTC
MEAN_ELEMENT_THEORY = SGP/SGP4

EPOCH          = 2026-02-23T02:59:23.279136
MEAN_MOTION    = 14.96140159
ECCENTRICITY   = .0012975
INCLINATION    = 82.5033
RA_OF_ASC_NODE = 293.0331
ARG_OF_PERICENTER = 239.3552
MEAN_ANOMALY   = 120.6392

EPHEMERIS_TYPE = 0
CLASSIFICATION_TYPE = U
NORAD_CAT_ID   = 22236
ELEMENT_SET_NO = 999
REV_AT_EPOCH   = 77861
BSTAR          = .15621965E-3
MEAN_MOTION_DOT = .1786E-4
MEAN_MOTION_DDOT = 0

CCSDS_OMM_VERS = 2.0
CREATION_DATE  = 
ORIGINATOR     = 

OBJECT_NAME    = SL-16 R/B
OBJECT_ID      = 1992-093B
CENTER_NAME    = EARTH
REF_FRAME      = TEME
TIME_SYSTEM    = UTC
MEAN_ELEMENT_THEORY = SGP/SGP4

EPOCH          = 2026-02-23T04:21:18.430848
MEAN_MOTION    = 14.15448127
ECCENTRICITY   = .00058415
INCLINATION    = 71.0222
RA_OF_ASC_NODE = 34.7212
ARG_OF_PERICENTER = 309.3387
MEAN_ANOMALY   = 50.7218

EPHEMERIS_TYPE = 0
CLASSIFICATION_TYPE = U
NORAD_CAT_ID   = 22285
ELEMENT_SET_NO = 999
REV_AT_EPOCH   = 71110
BSTAR          = .1352154E-3
MEAN_MOTION_DOT = .216E-5
MEAN_MOTION_DDOT = 0

CCSDS_OMM_VERS = 2.0
CREATION_DATE  = 
ORIGINATOR     = 

OBJECT_NAME    = COSMOS 2228
OBJECT_ID      = 1992-094A
CENTER_NAME    = EARTH
REF_FRAME      = TEME
TIME_SYSTEM    = UTC
MEAN_ELEMENT_THEORY = SGP/SGP4

EPOCH          = 2026-02-23T05:12:58.470624
MEAN_MOTION    = 14.97113078
ECCENTRICITY   = .00179014
INCLINATION    = 82.5145
RA_OF_ASC_NODE = 251.1700
ARG_OF_PERICENTER = 355.3770
MEAN_ANOMALY   = 4.7284

EPHEMERIS_TYPE = 0
CLASSIFICATION_TYPE = U
NORAD_CAT_ID   = 22286
ELEMENT_SET_NO = 999
REV_AT_EPOCH   = 77389
BSTAR          = .17500086E-3
MEAN_MOTION_DOT = .2051E-4
MEAN_MOTION_DDOT = 0

