SL-14 R/B               
1 21423U 91042B   26054.23961886  .00000456  00000+0  54731-4 0  9996
2 21423  82.4898 233.7346 0015610 290.4932  69.4606 14.81813312850931
ERS-1                   
1 21574U 91050A   26054.03044824  .00000304  00000+0  11202-3 0  9991
2 21574  98.7891  71.8964 0030969 244.9478 114.8493 14.39436521813621
ARIANE 40 R/B           
1 21610U 91050F   26054.11626691  .00000272  00000+0  93787-4 0  9992
2 21610  98.2046 106.8976 0004312 112.8072 247.3575 14.42881835816898
INTERCOSMOS 25          
1 21819U 91086A   26054.12743003  .00001197  00000+0  22883-3 0  9995
2 21819  82.6075 318.8084 1487078 148.3017 221.7024 12.11954029494922
SL-8 R/B                
1 21876U 92008B   26054.11643951  .00000010  00000+0 -55798-5 0  9990
2 21876  82.9238 278.6211 0034745 173.3875 300.9681 13.75969916707414
SL-8 R/B                
1 21938U 92020B   26054.28125495  .00000097  00000+0  84761-4 0  9994
2 21938  82.9344 164.4558 0028322 340.4352  38.1743 13.75547624699156
USA 81                  
1 21949U 92023A   26054.19822898  .00000193  00000+0  64175-4 0  9994
2 21949  85.0111 139.7986 0002731  90.1149 270.0357 14.32362590 92711
COSMOS 2219             
1 22219U 92076A   26054.23187587  .00000345  00000+0  20573-3 0  9999
2 22219  71.0594  48.2913 0019673 226.3641 133.5850 14.14082488716336
SL-16 R/B               
1 22220U 92076B   26054.24569317  .00000209  00000+0  12794-3 0  9992
2 22220  70.9981 218.7982 0010960 122.8550  50.8118 14.16855596719785
COSMOS 2221             
1 22236U 92080A   26054.12457499  .00001786  00000+0  15622-3 0  9992
2 22236  82.5033 293.0331 0012975 239.3552 120.6392 14.96140159778614
SL-16 R/B               
1 22285U 92093B   26054.18146332  .00000216  00000+0  13522-3 0  9991
2 22285  71.0222  34.7212 0005841 309.3387  50.7218 14.15448127711105
COSMOS 2228             
1 22286U 92094A   26054.21734341  .00002051  00000+0  17500-3 0  9999
2 22286  82.5145 251.1700 0017901 355.3770   4.7284 14.97113078773891
